ONEWEB-0113             
1 48050U 21025J   22182.43121077 -.00000162  00000+0 -47822-3 0  9993
2 48050  87.9016 247.6367 0001923 101.1603 258.9742 13.13467453 63667
ONEWEB-0112             
1 48051U 21025K   22182.57239016  .00000093  00000+0  21899-3 0  9999
2 48051  87.9066 247.4934 0002032  99.6134 260.5224 13.13469635 63694
ONEWEB-0156             
1 48052U 21025L   22182.42898217 -.00000096  00000+0 -29874-3 0  9994
2 48052  87.9021 247.6156 0002030  97.7721 262.3638 13.13471498 63658
ONEWEB-0161             
1 48053U 21025M   22182.55445226  .00000358  00000+0  94657-3 0  9997
2 48053  87.9061 247.5369 0002257 100.9063 259.2320 13.13471575 63609
ONEWEB-0158             
1 48054U 21025N   22182.44241976 -.00000298  00000+0 -85180-3 0  9998
2 48054  87.9013 247.6263 0001750 103.7055 256.4269 13.13469796 63715
ONEWEB-0157             
1 48055U 21025P   22182.54100477  .00000200  00000+0  51258-3 0  9990
2 48055  87.8987 247.5597 0002386  93.3195 266.8207 13.13472494 63669
ONEWEB-0162             
1 48056U 21025Q   22182.42675372 -.00000114  00000+0 -34764-3 0  9998
2 48056  87.9065 247.5362 0002042  93.8783 266.2580 13.13469310 63622
ONEWEB-0155             
1 48057U 21025R   22182.44913425 -.00000473  00000+0 -13315-2 0  9991
2 48057  87.8968 247.5434 0002110 103.1057 257.0308 13.13470162 63767
ONEWEB-0149             
1 48058U 21025S   22182.54549309  .00000260  00000+0  67734-3 0  9996
2 48058  87.9009 247.5676 0002004  81.8247 278.3109 13.13469267 63587
ONEWEB-0148             
1 48059U 21025T   22182.43346757 -.00000097  00000+0 -30071-3 0  9991
2 48059  87.9038 247.5666 0002553  77.2740 282.8675 13.13469781 63696
ONEWEB-0160             
1 48060U 21025U   22182.45138161 -.00000037  00000+0 -13620-3 0  9998
2 48060  87.9043 247.5577 0001118 129.7095 230.4133 13.13471272 63648
ONEWEB-0163             
1 48061U 21025V   22182.43569214 -.00000257  00000+0 -73906-3 0  9991
2 48061  87.9027 247.6631 0002655  94.1645 265.9788 13.13467656 63769
ONEWEB-0159             
1 48062U 21025W   22182.42450173  .00000021  00000+0  23132-4 0  9998
2 48062  87.9075 247.5759 0002539  90.7807 269.3613 13.13472046 63681
ONEWEB-0164             
1 48063U 21025X   22182.55892527  .00000304  00000+0  79763-3 0  9990
2 48063  87.9036 247.6567 0002204 109.2504 250.8864 13.13469718 63681
ONEWEB-0167             
1 48064U 21025Y   22182.43794815 -.00000212  00000+0 -61662-3 0  9998
2 48064  87.8990 247.5800 0002430  93.6196 266.5211 13.13470614 63657
ONEWEB-0166             
1 48065U 21025Z   22182.45811656  .00000051  00000+0  10354-3 0  9995
2 48065  87.9060 247.5167 0002285  96.0681 264.0708 13.13471597 63731
ONEWEB-0151             
1 48066U 21025AA  22182.46034214  .00000072  00000+0  16272-3 0  9992
2 48066  87.9001 247.5937 0002193 110.6083 249.5282 13.13470865 63674
ONEWEB-0170             
1 48067U 21025AB  22182.54324641  .00000178  00000+0  45243-3 0  9995
2 48067  87.9031 247.6491 0002016 128.4099 231.7211 13.13470937 63644
ONEWEB-0168             
1 48068U 21025AC  22182.45363363 -.00000096  00000+0 -29841-3 0  9997
2 48068  87.9012 247.6271 0002227  98.3725 261.7657 13.13472144 63644
ONEWEB-0173             
1 48069U 21025AD  22182.44691085 -.00000260  00000+0 -74782-3 0  9999
2 48069  87.9015 247.6377 0002610 101.3275 258.8148 13.13471434 63885
ONEWEB-0171             
1 48070U 21025AE  22182.55669167  .00000366  00000+0  96820-3 0  9991
2 48070  87.9071 247.5208 0002232  90.2267 269.9118 13.13467471 63716
ONEWEB-0172             
1 48071U 21025AF  22182.53765022  .00000071  00000+0  16038-3 0  9993
2 48071  87.8991 247.6510 0002343 104.1958 255.9432 13.13471124 64602
ONEWEB-0174             
1 48072U 21025AG  22182.44467138 -.00000223  00000+0 -64436-3 0  9997
2 48072  87.9073 247.5716 0002421  75.7274 284.4124 13.13470140 63918
ONEWEB-0175             
1 48073U 21025AH  22182.54771057  .00000356  00000+0  94117-3 0  9991
2 48073  87.9031 247.5136 0002055 115.7550 244.3791 13.13473954 63588
ONEWEB-0177             
1 48074U 21025AJ  22182.56117524  .00000304  00000+0  79716-3 0  9998
2 48074  87.9026 247.6275 0002874  96.3105 263.8351 13.13468989 63778
ONEWEB-0178             
1 48075U 21025AK  22182.42561133 -.00000114  00000+0 -34715-3 0  9994
2 48075  87.9074 247.5628 0002336  96.3650 263.7746 13.13469068 63801
ONEWEB-0108             
1 48076U 21025AL  22182.53877636  .00000139  00000+0  34438-3 0  9992
2 48076  87.8996 247.5795 0001752  90.9492 269.1838 13.13471620 63746
ONEWEB-0169             
1 48077U 21025AM  22182.57012454  .00000090  00000+0  21221-3 0  9998
2 48077  87.9029 247.6408 0001963  91.0479 269.0875 13.13470462 62403
ONEWEB-0176             
1 48210U 21031A   22182.55970792  .00000117  00000+0  28026-3 0  9990
2 48210  87.9036 217.2758 0002328  94.1143 266.0253 13.14504850 58265
ONEWEB-0184             
1 48211U 21031B   22182.53434120  .00000131  00000+0  31835-3 0  9997
2 48211  87.9008 217.2034 0002562 126.0043 234.1324 13.14504284 58239
ONEWEB-0179             
1 48212U 21031C   22182.50262076 -.00000161  00000+0 -46921-3 0  9991
2 48212  87.9014 217.2082 0002484  91.8373 268.3041 13.14504293 58277
ONEWEB-0180             
1 48213U 21031D   22182.53646087  .00000141  00000+0  34651-3 0  9996
2 48213  87.9006 217.1995 0002291  89.9253 270.2139 13.14504498 58167
ONEWEB-0218             
1 48214U 21031E   22182.55759316  .00000143  00000+0  35160-3 0  9997
2 48214  87.8998 217.1598 0003081 117.6816 242.4627 13.14503488 58327
ONEWEB-0209             
1 48215U 21031F   22182.54702885  .00000219  00000+0  55705-3 0  9997
2 48215  87.9025 217.2259 0002286  93.5601 266.5790 13.14501719 58328
ONEWEB-0198             
1 48216U 21031G   22182.53222144  .00000065  00000+0  14106-3 0  9991
2 48216  87.9013 217.2487 0002775 102.4742 257.6698 13.14503735 58438
ONEWEB-0189             
1 48217U 21031H   22182.54491345  .00000209  00000+0  52928-3 0  9998
2 48217  87.9006 217.1828 0002774 101.3099 258.8342 13.14503682 58172
ONEWEB-0196             
1 48218U 21031J   22182.52376909 -.00000026  00000+0 -10475-3 0  9995
2 48218  87.9025 217.2129 0002165  98.3881 261.7494 13.14504617 58177
ONEWEB-0183             
1 48219U 21031K   22182.57238871 -.00000122  00000+0 -36226-3 0  9995
2 48219  87.9032 217.2197 0002200  89.5429 270.5952 13.14501015 58278
ONEWEB-0185             
1 48220U 21031L   22182.52580680 -.00000035  00000+0 -13017-3 0  9996
2 48220  87.9018 217.2159 0002332  89.8238 270.3159 13.14504362 58195
ONEWEB-0187             
1 48221U 21031M   22182.50050657 -.00000186  00000+0 -53534-3 0  9996
2 48221  87.9029 217.2369 0002313  89.6540 270.4855 13.14503878 58201
ONEWEB-0192             
1 48222U 21031N   22182.54914935  .00000223  00000+0  56744-3 0  9995
2 48222  87.9013 217.1835 0002234 101.0864 259.0517 13.14504533 58120
ONEWEB-0219             
1 48223U 21031P   22182.53010664  .00005043  00000+0  13564-1 0  9997
2 48223  87.9007 217.1762 0002495  91.7731 268.3685 13.14480034 58320
ONEWEB-0202             
1 48224U 21031Q   22182.50895636 -.00000182  00000+0 -52438-3 0  9991
2 48224  87.9031 217.2381 0003189 110.8109 249.3362 13.14501647 58302
ONEWEB-0204             
1 48225U 21031R   22182.57019800 -.00000065  00000+0 -21066-3 0  9993
2 48225  87.9048 217.2422 0001485  79.5994 280.5303 13.14502892 58201
ONEWEB-0205             
1 48226U 21031S   22182.51953790 -.00000120  00000+0 -35687-3 0  9999
2 48226  87.9024 217.2165 0002569  98.1274 262.0148 13.14500682 58210
ONEWEB-0206             
1 48227U 21031T   22182.56817486 -.00000057  00000+0 -18712-3 0  9995
2 48227  87.9001 217.1601 0002322  87.4281 272.7115 13.14501320 58173
ONEWEB-0182             
1 48228U 21031U   22182.56181840  .00000076  00000+0  17012-3 0  9995
2 48228  87.9045 217.2568 0002400  89.0854 271.0550 13.14499347 58389
ONEWEB-0186             
1 48229U 21031V   22182.49839919 -.00000176  00000+0 -50968-3 0  9995
2 48229  87.9015 217.1997 0002383  95.6231 264.5170 13.14500387 58320
ONEWEB-0181             
1 48230U 21031W   22182.55126253  .00000465  00000+0  12195-2 0  9992
2 48230  87.9030 217.2468 0002203  96.9976 263.1404 13.14503078 58183
ONEWEB-0188             
1 48231U 21031X   22182.51531111 -.00000197  00000+0 -56554-3 0  9994
2 48231  87.9034 217.2535 0002326  90.9716 269.1680 13.14500622 58088
ONEWEB-0220             
1 48232U 21031Y   22182.55336684  .00000192  00000+0  48287-3 0  9994
2 48232  87.9007 217.1699 0002606  92.0830 268.0598 13.14504519 58355
ONEWEB-0165             
1 48233U 21031Z   22182.50684583 -.00000219  00000+0 -62521-3 0  9993
2 48233  87.9028 217.2413 0002489  93.5269 266.6146 13.14503636 58302
ONEWEB-0199             
1 48234U 21031AA  22182.56604902 -.00000019  00000+0 -86971-4 0  9991
2 48234  87.9019 217.2124 0002323  93.9533 266.1863 13.14500791 58217
ONEWEB-0203             
1 48235U 21031AB  22182.55546675  .00000171  00000+0  42720-3 0  9993
2 48235  87.9037 217.1977 0001941 108.4085 251.7256 13.14500810 58221
ONEWEB-0197             
1 48236U 21031AC  22182.54280011  .00000222  00000+0  56366-3 0  9990
2 48236  87.9022 217.2186 0002223  96.4316 263.7067 13.14503411 58139
ONEWEB-0194             
1 48237U 21031AD  22182.51106732 -.00000416  00000+0 -11578-2 0  9997
2 48237  87.9016 217.2181 0001736 104.7729 255.3594 13.14502247 58304
ONEWEB-0193             
1 48238U 21031AE  22182.52798303  .00000001  00000+0 -31607-4 0  9996
2 48238  87.9024 217.2211 0002251 101.9425 258.1957 13.14503405 58258
ONEWEB-0191             
1 48239U 21031AF  22182.53855927  .00000159  00000+0  39325-3 0  9991
2 48239  87.9010 217.2098 0002022 100.4842 259.6516 13.14504715 58117
ONEWEB-0195             
1 48240U 21031AG  22182.51733806 -.00000146  00000+0 -42848-3 0  9994
2 48240  87.9014 217.2032 0002713 100.7032 259.4403 13.14503980 58095
